{
  "type": "FeatureCollection",
  "features": [
    {
      "type": "Feature",
      "properties": {
        "norad_id": 40118,
        "name": "GAOFEN-2",
        "group": "resource",
        "lat": -49.69008649636736,
        "lon": -135.24091196285747,
        "alt_km": 639.0071618705306,
        "timestamp": "2025-12-21T03:56:50.511712+00:00",
        "meta_object_name": "GAOFEN-2",
        "meta_object_id": "2014-049A",
        "meta_epoch": "2025-12-20T20:25:24.360960",
        "meta_mean_motion": 14.80619892,
        "meta_eccentricity": 0.0008729,
        "meta_inclination": 98.038,
        "meta_ra_of_asc_node": 54.0336,
        "meta_arg_of_pericenter": 90.4794,
        "meta_mean_anomaly": 269.7418,
        "meta_ephemeris_type": 0,
        "meta_classification_type": "U",
        "meta_norad_cat_id": 40118,
        "meta_element_set_no": 999,
        "meta_rev_at_epoch": 61284,
        "meta_bstar": 2.2122e-05,
        "meta_mean_motion_dot": 1.16e-06,
        "meta_mean_motion_ddot": 0,
        "tle_line1": "1 40118U 14049A   25354.85097640  .00000116  00000+0  22122-4 0  9990",
        "tle_line2": "2 40118  98.0380  54.0336 0008729  90.4794 269.7418 14.80619892612840"
      },
      "geometry": {
        "type": "Point",
        "coordinates": [
          -135.24091196285747,
          -49.69008649636736
        ]
      }
    },
    {
      "type": "Feature",
      "properties": {
        "norad_id": 40143,
        "name": "YAOGAN-21",
        "group": "resource",
        "lat": 57.76126223491693,
        "lon": 26.589656602952992,
        "alt_km": 484.5681473036675,
        "timestamp": "2025-12-21T03:56:50.511722+00:00",
        "meta_object_name": "YAOGAN-21",
        "meta_object_id": "2014-053A",
        "meta_epoch": "2025-12-20T21:23:15.771264",
        "meta_mean_motion": 15.23748439,
        "meta_eccentricity": 0.0008998,
        "meta_inclination": 97.1747,
        "meta_ra_of_asc_node": 37.8497,
        "meta_arg_of_pericenter": 15.6234,
        "meta_mean_anomaly": 344.5279,
        "meta_ephemeris_type": 0,
        "meta_classification_type": "U",
        "meta_norad_cat_id": 40143,
        "meta_element_set_no": 999,
        "meta_rev_at_epoch": 62778,
        "meta_bstar": 7.1695e-05,
        "meta_mean_motion_dot": 1.658e-05,
        "meta_mean_motion_ddot": 0,
        "tle_line1": "1 40143U 14053A   25354.89115476  .00001658  00000+0  71695-4 0  9996",
        "tle_line2": "2 40143  97.1747  37.8497 0008998  15.6234 344.5279 15.23748439627782"
      },
      "geometry": {
        "type": "Point",
        "coordinates": [
          26.589656602952992,
          57.76126223491693
        ]
      }
    },
    {
      "type": "Feature",
      "properties": {
        "norad_id": 40275,
        "name": "YAOGAN-22",
        "group": "resource",
        "lat": 67.20546812259163,
        "lon": 111.84896617327804,
        "alt_km": 1199.449572277379,
        "timestamp": "2025-12-21T03:56:50.511732+00:00",
        "meta_object_name": "YAOGAN-22",
        "meta_object_id": "2014-063A",
        "meta_epoch": "2025-12-20T16:38:31.747200",
        "meta_mean_motion": 13.15522924,
        "meta_eccentricity": 0.0006025,
        "meta_inclination": 100.7427,
        "meta_ra_of_asc_node": 138.2253,
        "meta_arg_of_pericenter": 229.0888,
        "meta_mean_anomaly": 130.9702,
        "meta_ephemeris_type": 0,
        "meta_classification_type": "U",
        "meta_norad_cat_id": 40275,
        "meta_element_set_no": 999,
        "meta_rev_at_epoch": 53634,
        "meta_bstar": 1.3459e-05,
        "meta_mean_motion_dot": -4.2e-07,
        "meta_mean_motion_ddot": 0,
        "tle_line1": "1 40275U 14063A   25354.69342300 -.00000042  00000+0  13459-4 0  9990",
        "tle_line2": "2 40275 100.7427 138.2253 0006025 229.0888 130.9702 13.15522924536342"
      },
      "geometry": {
        "type": "Point",
        "coordinates": [
          111.84896617327804,
          67.20546812259163
        ]
      }
    },
    {
      "type": "Feature",
      "properties": {
        "norad_id": 40298,
        "name": "ASNARO",
        "group": "resource",
        "lat": -18.8697441807187,
        "lon": 73.43945589414787,
        "alt_km": 513.9048256675724,
        "timestamp": "2025-12-21T03:56:50.511741+00:00",
        "meta_object_name": "ASNARO",
        "meta_object_id": "2014-070A",
        "meta_epoch": "2025-12-20T20:07:45.585120",
        "meta_mean_motion": 15.19644443,
        "meta_eccentricity": 0.0005696,
        "meta_inclination": 97.3648,
        "meta_ra_of_asc_node": 70.5879,
        "meta_arg_of_pericenter": 99.9701,
        "meta_mean_anomaly": 260.2177,
        "meta_ephemeris_type": 0,
        "meta_classification_type": "U",
        "meta_norad_cat_id": 40298,
        "meta_element_set_no": 999,
        "meta_rev_at_epoch": 61692,
        "meta_bstar": 0.00026397,
        "meta_mean_motion_dot": 5.563e-05,
        "meta_mean_motion_ddot": 0,
        "tle_line1": "1 40298U 14070A   25354.83872205  .00005563  00000+0  26397-3 0  9997",
        "tle_line2": "2 40298  97.3648  70.5879 0005696  99.9701 260.2177 15.19644443616929"
      },
      "geometry": {
        "type": "Point",
        "coordinates": [
          73.43945589414787,
          -18.8697441807187
        ]
      }
    },
    {
      "type": "Feature",
      "properties": {
        "norad_id": 40310,
        "name": "YAOGAN-24",
        "group": "resource",
        "lat": 76.91314850031442,
        "lon": 88.39730896578524,
        "alt_km": 625.1934763780546,
        "timestamp": "2025-12-21T03:56:50.511750+00:00",
        "meta_object_name": "YAOGAN-24",
        "meta_object_id": "2014-072A",
        "meta_epoch": "2025-12-20T21:04:50.861280",
        "meta_mean_motion": 14.76194453,
        "meta_eccentricity": 0.0015115,
        "meta_inclination": 98.1225,
        "meta_ra_of_asc_node": 126.0152,
        "meta_arg_of_pericenter": 113.5227,
        "meta_mean_anomaly": 246.7572,
        "meta_ephemeris_type": 0,
        "meta_classification_type": "U",
        "meta_norad_cat_id": 40310,
        "meta_element_set_no": 999,
        "meta_rev_at_epoch": 59741,
        "meta_bstar": 0.00018243,
        "meta_mean_motion_dot": 1.211e-05,
        "meta_mean_motion_ddot": 0,
        "tle_line1": "1 40310U 14072A   25354.87836645  .00001211  00000+0  18243-3 0  9993",
        "tle_line2": "2 40310  98.1225 126.0152 0015115 113.5227 246.7572 14.76194453597411"
      },
      "geometry": {
        "type": "Point",
        "coordinates": [
          88.39730896578524,
          76.91314850031442
        ]
      }
    },
    {
      "type": "Feature",
      "properties": {
        "norad_id": 40336,
        "name": "CBERS 4",
        "group": "resource",
        "lat": 28.332895414146435,
        "lon": 48.362040078243794,
        "alt_km": 771.6786550161578,
        "timestamp": "2025-12-21T03:56:50.511760+00:00",
        "meta_object_name": "CBERS 4",
        "meta_object_id": "2014-079A",
        "meta_epoch": "2025-12-20T21:07:22.525248",
        "meta_mean_motion": 14.35519475,
        "meta_eccentricity": 0.0001811,
        "meta_inclination": 98.3303,
        "meta_ra_of_asc_node": 52.6186,
        "meta_arg_of_pericenter": 103.1613,
        "meta_mean_anomaly": 256.9775,
        "meta_ephemeris_type": 0,
        "meta_classification_type": "U",
        "meta_norad_cat_id": 40336,
        "meta_element_set_no": 999,
        "meta_rev_at_epoch": 57837,
        "meta_bstar": -4.4301e-05,
        "meta_mean_motion_dot": -1.69e-06,
        "meta_mean_motion_ddot": 0,
        "tle_line1": "1 40336U 14079A   25354.88012182 -.00000169  00000+0 -44301-4 0  9999",
        "tle_line2": "2 40336  98.3303  52.6186 0001811 103.1613 256.9775 14.35519475578373"
      },
      "geometry": {
        "type": "Point",
        "coordinates": [
          48.362040078243794,
          28.332895414146435
        ]
      }
    },
    {
      "type": "Feature",
      "properties": {
        "norad_id": 40362,
        "name": "YAOGAN-26",
        "group": "resource",
        "lat": -68.28851493113547,
        "lon": 157.39406201731708,
        "alt_km": 456.1737843584251,
        "timestamp": "2025-12-21T03:56:50.511769+00:00",
        "meta_object_name": "YAOGAN-26",
        "meta_object_id": "2014-088A",
        "meta_epoch": "2025-12-20T20:37:39.112608",
        "meta_mean_motion": 15.39558341,
        "meta_eccentricity": 0.0005026,
        "meta_inclination": 97.0637,
        "meta_ra_of_asc_node": 355.2446,
        "meta_arg_of_pericenter": 5.9684,
        "meta_mean_anomaly": 354.1621,
        "meta_ephemeris_type": 0,
        "meta_classification_type": "U",
        "meta_norad_cat_id": 40362,
        "meta_element_set_no": 999,
        "meta_rev_at_epoch": 61019,
        "meta_bstar": 0.00021814,
        "meta_mean_motion_dot": 8.503e-05,
        "meta_mean_motion_ddot": 0,
        "tle_line1": "1 40362U 14088A   25354.85948047  .00008503  00000+0  21814-3 0  9994",
        "tle_line2": "2 40362  97.0637 355.2446 0005026   5.9684 354.1621 15.39558341610196"
      },
      "geometry": {
        "type": "Point",
        "coordinates": [
          157.39406201731708,
          -68.28851493113547
        ]
      }
    }
  ]
}